STARLINK-2022           
1 47643U 21012Z   24237.79411422  .00001937  00000+0  14896-3 0  9998
2 47643  53.0548  54.0643 0001360  93.5187 266.5957 15.06387532195573
